[{"OBJECT_NAME":"UTMN 2 (RS27S)","OBJECT_ID":"2023-091AP","EPOCH":"2026-03-09T23:09:07.917408","MEAN_MOTION":15.29495965,"ECCENTRICITY":0.00097379,"INCLINATION":97.5194,"RA_OF_ASC_NODE":134.949,"ARG_OF_PERICENTER":76.0788,"MEAN_ANOMALY":284.1534,"EPHEMERIS_TYPE":0,"CLASSIFICATION_TYPE":"U","NORAD_CAT_ID":57203,"ELEMENT_SET_NO":999,"REV_AT_EPOCH":14936,"BSTAR":0.00056135701,"MEAN_MOTION_DOT":0.00016013,"MEAN_MOTION_DDOT":0},{"OBJECT_NAME":"STARLINK-36137","OBJECT_ID":"2025-294D","EPOCH":"2026-03-09T22:54:56.854944","MEAN_MOTION":15.27588717,"ECCENTRICITY":6.499e-5,"INCLINATION":42.9973,"RA_OF_ASC_NODE":36.243,"ARG_OF_PERICENTER":155.8503,"MEAN_ANOMALY":204.2379,"EPHEMERIS_TYPE":0,"CLASSIFICATION_TYPE":"U","NORAD_CAT_ID":67033,"ELEMENT_SET_NO":999,"REV_AT_EPOCH":1484,"BSTAR":0.00083990792,"MEAN_MOTION_DOT":0.00022928,"MEAN_MOTION_DDOT":0}]
